[{"OBJECT_NAME":"COSMOS 2453","OBJECT_ID":"2009-036C","EPOCH":"2026-03-09T22:43:10.368192","MEAN_MOTION":12.4151823,"ECCENTRICITY":0.00072216,"INCLINATION":82.4918,"RA_OF_ASC_NODE":149.5584,"ARG_OF_PERICENTER":32.2902,"MEAN_ANOMALY":327.8618,"EPHEMERIS_TYPE":0,"CLASSIFICATION_TYPE":"U","NORAD_CAT_ID":35500,"ELEMENT_SET_NO":999,"REV_AT_EPOCH":75566,"BSTAR":0.00033748685,"MEAN_MOTION_DOT":5.6e-7,"MEAN_MOTION_DDOT":0},{"OBJECT_NAME":"COSMOS 2088","OBJECT_ID":"1990-066A","EPOCH":"2026-03-09T17:28:50.927808","MEAN_MOTION":12.4078183,"ECCENTRICITY":0.0024857,"INCLINATION":73.6003,"RA_OF_ASC_NODE":164.131,"ARG_OF_PERICENTER":41.4327,"MEAN_ANOMALY":73.3239,"EPHEMERIS_TYPE":0,"CLASSIFICATION_TYPE":"U","NORAD_CAT_ID":20720,"ELEMENT_SET_NO":999,"REV_AT_EPOCH":61281,"BSTAR":0.00015835854,"MEAN_MOTION_DOT":4.0e-8,"MEAN_MOTION_DDOT":0}]
